{"type": "FeatureCollection", "features": [ {"type": "Feature", "properties": {"norad_id": 66443, "name": "STARLINK-35219", "group": "last-30-days", "lat": 34.04057280404749, "lon": -122.15445545480982, "alt_km": 410.7368219718401, "timestamp": "2025-12-02T23:34:14.290464+00:00", "meta": {"OBJECT_NAME": "STARLINK-35219", "OBJECT_ID": "2025-259X", "EPOCH": "2025-12-02T12:00:05.998752", "MEAN_MOTION": 15.50589184, "ECCENTRICITY": 0.0001672, "INCLINATION": 42.9993, "RA_OF_ASC_NODE": 107.1315, "ARG_OF_PERICENTER": 266.6264, "MEAN_ANOMALY": 44.1741, "EPHEMERIS_TYPE": 0, "CLASSIFICATION_TYPE": "U", "NORAD_CAT_ID": 66443, "ELEMENT_SET_NO": 999, "REV_AT_EPOCH": 452, "BSTAR": -0.0013358, "MEAN_MOTION_DOT": -0.00077961, "MEAN_MOTION_DDOT": 0}, "tle": {"line1": "1 66443U 25259X   25336.50006943 -.00077961  00000+0 -13358-2 0  9995", "line2": "2 66443  42.9993 107.1315 0001672 266.6264  44.1741 15.50589184  4525"}}, "geometry": {"type": "Point", "coordinates": [-122.15445545480982, 34.04057280404749]}}, {"type": "Feature", "properties": {"norad_id": 66444, "name": "STARLINK-35360", "group": "last-30-days", "lat": 31.243011701771454, "lon": -116.3220200687235, "alt_km": 410.6054121570878, "timestamp": "2025-12-02T23:34:14.290474+00:00", "meta": {"OBJECT_NAME": "STARLINK-35360", "OBJECT_ID": "2025-259Y", "EPOCH": "2025-12-02T12:00:05.998752", "MEAN_MOTION": 15.50536589, "ECCENTRICITY": 0.0001487, "INCLINATION": 42.9996, "RA_OF_ASC_NODE": 107.1171, "ARG_OF_PERICENTER": 252.1181, "MEAN_ANOMALY": 64.3204, "EPHEMERIS_TYPE": 0, "CLASSIFICATION_TYPE": "U", "NORAD_CAT_ID": 66444, "ELEMENT_SET_NO": 999, "REV_AT_EPOCH": 463, "BSTAR": 0.00092832, "MEAN_MOTION_DOT": 0.00054416, "MEAN_MOTION_DDOT": 0}, "tle": {"line1": "1 66444U 25259Y   25336.50006943  .00054416  00000+0  92832-3 0  9999", "line2": "2 66444  42.9996 107.1171 0001487 252.1181  64.3204 15.50536589  4632"}}, "geometry": {"type": "Point", "coordinates": [-116.3220200687235, 31.243011701771454]}}, {"type": "Feature", "properties": {"norad_id": 66445, "name": "STARLINK-34698", "group": "last-30-days", "lat": 33.176149812973954, "lon": -120.25004835055498, "alt_km": 410.3685626819142, "timestamp": "2025-12-02T23:34:14.290486+00:00", "meta": {"OBJECT_NAME": "STARLINK-34698", "OBJECT_ID": "2025-259Z", "EPOCH": "2025-12-02T12:00:05.998752", "MEAN_MOTION": 15.5051786, "ECCENTRICITY": 0.0001406, "INCLINATION": 42.9995, "RA_OF_ASC_NODE": 107.1268, "ARG_OF_PERICENTER": 253.2015, "MEAN_ANOMALY": 59.4171, "EPHEMERIS_TYPE": 0, "CLASSIFICATION_TYPE": "U", "NORAD_CAT_ID": 66445, "ELEMENT_SET_NO": 999, "REV_AT_EPOCH": 452, "BSTAR": 0.0010058, "MEAN_MOTION_DOT": 0.0005898, "MEAN_MOTION_DDOT": 0}, "tle": {"line1": "1 66445U 25259Z   25336.50006943  .00058980  00000+0  10058-2 0  9999", "line2": "2 66445  42.9995 107.1268 0001406 253.2015  59.4171 15.50517860  4525"}}, "geometry": {"type": "Point", "coordinates": [-120.25004835055498, 33.176149812973954]}}, {"type": "Feature", "properties": {"norad_id": 66446, "name": "STARLINK-34986", "group": "last-30-days", "lat": 32.21926506246274, "lon": -118.25424836472999, "alt_km": 410.4840738140638, "timestamp": "2025-12-02T23:34:14.290495+00:00", "meta": {"OBJECT_NAME": "STARLINK-34986", "OBJECT_ID": "2025-259AA", "EPOCH": "2025-12-02T12:00:05.998752", "MEAN_MOTION": 15.50538374, "ECCENTRICITY": 0.0001474, "INCLINATION": 42.9996, "RA_OF_ASC_NODE": 107.1214, "ARG_OF_PERICENTER": 253.8645, "MEAN_ANOMALY": 60.6565, "EPHEMERIS_TYPE": 0, "CLASSIFICATION_TYPE": "U", "NORAD_CAT_ID": 66446, "ELEMENT_SET_NO": 999, "REV_AT_EPOCH": 463, "BSTAR": 0.00095297, "MEAN_MOTION_DOT": 0.00055883, "MEAN_MOTION_DDOT": 0}, "tle": {"line1": "1 66446U 25259AA  25336.50006943  .00055883  00000+0  95297-3 0  9998", "line2": "2 66446  42.9996 107.1214 0001474 253.8645  60.6565 15.50538374  4634"}}, "geometry": {"type": "Point", "coordinates": [-118.25424836472999, 32.21926506246274]}}, {"type": "Feature", "properties": {"norad_id": 66447, "name": "STARLINK-34851", "group": "last-30-days", "lat": 30.184559694003926, "lon": -114.3317791425576, "alt_km": 411.35263421099717, "timestamp": "2025-12-02T23:34:14.290505+00:00", "meta": {"OBJECT_NAME": "STARLINK-34851", "OBJECT_ID": "2025-259AB", "EPOCH": "2025-12-02T12:00:05.998752", "MEAN_MOTION": 15.50597982, "ECCENTRICITY": 0.0001763, "INCLINATION": 42.9996, "RA_OF_ASC_NODE": 107.112, "ARG_OF_PERICENTER": 269.2585, "MEAN_ANOMALY": 49.2063, "EPHEMERIS_TYPE": 0, "CLASSIFICATION_TYPE": "U", "NORAD_CAT_ID": 66447, "ELEMENT_SET_NO": 999, "REV_AT_EPOCH": 452, "BSTAR": -0.001529, "MEAN_MOTION_DOT": -0.0008909, "MEAN_MOTION_DDOT": 0}, "tle": {"line1": "1 66447U 25259AB  25336.50006943 -.00089090  00000+0 -15290-2 0  9992", "line2": "2 66447  42.9996 107.1120 0001763 269.2585  49.2063 15.50597982  4520"}}, "geometry": {"type": "Point", "coordinates": [-114.3317791425576, 30.184559694003926]}}, {"type": "Feature", "properties": {"norad_id": 66448, "name": "STARLINK-35355", "group": "last-30-days", "lat": 29.19718952357425, "lon": -112.56035946949945, "alt_km": 410.8650346270533, "timestamp": "2025-12-02T23:34:14.290515+00:00", "meta": {"OBJECT_NAME": "STARLINK-35355", "OBJECT_ID": "2025-259AC", "EPOCH": "2025-12-02T12:00:05.998752", "MEAN_MOTION": 15.50545626, "ECCENTRICITY": 0.0001484, "INCLINATION": 42.9998, "RA_OF_ASC_NODE": 107.1076, "ARG_OF_PERICENTER": 252.4719, "MEAN_ANOMALY": 67.7965, "EPHEMERIS_TYPE": 0, "CLASSIFICATION_TYPE": "U", "NORAD_CAT_ID": 66448, "ELEMENT_SET_NO": 999, "REV_AT_EPOCH": 463, "BSTAR": 0.00088603, "MEAN_MOTION_DOT": 0.00051921, "MEAN_MOTION_DDOT": 0}, "tle": {"line1": "1 66448U 25259AC  25336.50006943  .00051921  00000+0  88603-3 0  9992", "line2": "2 66448  42.9998 107.1076 0001484 252.4719  67.7965 15.50545626  4632"}}, "geometry": {"type": "Point", "coordinates": [-112.56035946949945, 29.19718952357425]}}, {"type": "Feature", "properties": {"norad_id": 66449, "name": "STARLINK-34720", "group": "last-30-days", "lat": 28.13870143060339, "lon": -110.74296236316309, "alt_km": 410.94507183336736, "timestamp": "2025-12-02T23:34:14.290527+00:00", "meta": {"OBJECT_NAME": "STARLINK-34720", "OBJECT_ID": "2025-259AD", "EPOCH": "2025-12-02T12:00:05.998752", "MEAN_MOTION": 15.50547493, "ECCENTRICITY": 0.0001389, "INCLINATION": 42.9998, "RA_OF_ASC_NODE": 107.1025, "ARG_OF_PERICENTER": 250.6783, "MEAN_ANOMALY": 71.5021, "EPHEMERIS_TYPE": 0, "CLASSIFICATION_TYPE": "U", "NORAD_CAT_ID": 66449, "ELEMENT_SET_NO": 999, "REV_AT_EPOCH": 452, "BSTAR": 0.00088456, "MEAN_MOTION_DOT": 0.00051837, "MEAN_MOTION_DDOT": 0}, "tle": {"line1": "1 66449U 25259AD  25336.50006943  .00051837  00000+0  88456-3 0  9995", "line2": "2 66449  42.9998 107.1025 0001389 250.6783  71.5021 15.50547493  4520"}}, "geometry": {"type": "Point", "coordinates": [-110.74296236316309, 28.13870143060339]}}, {"type": "Feature", "properties": {"norad_id": 66450, "name": "STARLINK-35334", "group": "last-30-days", "lat": 27.065295862964575, "lon": -108.97617441809018, "alt_km": 411.02704980043563, "timestamp": "2025-12-02T23:34:14.290537+00:00", "meta": {"OBJECT_NAME": "STARLINK-35334", "OBJECT_ID": "2025-259AE", "EPOCH": "2025-12-02T12:00:05.998752", "MEAN_MOTION": 15.50536611, "ECCENTRICITY": 0.0001435, "INCLINATION": 42.9998, "RA_OF_ASC_NODE": 107.0969, "ARG_OF_PERICENTER": 244.3882, "MEAN_ANOMALY": 79.7094, "EPHEMERIS_TYPE": 0, "CLASSIFICATION_TYPE": "U", "NORAD_CAT_ID": 66450, "ELEMENT_SET_NO": 999, "REV_AT_EPOCH": 463, "BSTAR": 0.00095664, "MEAN_MOTION_DOT": 0.00056098, "MEAN_MOTION_DDOT": 0}, "tle": {"line1": "1 66450U 25259AE  25336.50006943  .00056098  00000+0  95664-3 0  9990", "line2": "2 66450  42.9998 107.0969 0001435 244.3882  79.7094 15.50536611  4632"}}, "geometry": {"type": "Point", "coordinates": [-108.97617441809018, 27.065295862964575]}}, {"type": "Feature", "properties": {"norad_id": 66454, "name": "VIASAT-3 F2", "group": "last-30-days", "lat": -5.566242602905839, "lon": -161.6761842273723, "alt_km": 15863.441891312897, "timestamp": "2025-12-02T23:34:14.290548+00:00", "meta": {"OBJECT_NAME": "VIASAT-3 F2", "OBJECT_ID": "2025-261A", "EPOCH": "2025-12-01T18:36:31.725216", "MEAN_MOTION": 2.2815034, "ECCENTRICITY": 0.23416718, "INCLINATION": 5.5759, "RA_OF_ASC_NODE": 293.3594, "ARG_OF_PERICENTER": 183.7944, "MEAN_ANOMALY": 144.3606, "EPHEMERIS_TYPE": 0, "CLASSIFICATION_TYPE": "U", "NORAD_CAT_ID": 66454, "ELEMENT_SET_NO": 999, "REV_AT_EPOCH": 39, "BSTAR": 0, "MEAN_MOTION_DOT": -4.6e-07, "MEAN_MOTION_DDOT": 0}, "tle": {"line1": "1 66454U 25261A   25335.77536719 -.00000046  00000+0  00000+0 0  9993", "line2": "2 66454   5.5759 293.3594 2341671 183.7944 144.3606  2.28150340   394"}}, "geometry": {"type": "Point", "coordinates": [-161.6761842273723, -5.566242602905839]}}, {"type": "Feature", "properties": {"norad_id": 66455, "name": "ATLAS 5 CENTAUR R/B", "group": "last-30-days", "lat": -5.948388981357217, "lon": -172.89610827311387, "alt_km": 14981.777744883842, "timestamp": "2025-12-02T23:34:14.290560+00:00", "meta": {"OBJECT_NAME": "ATLAS 5 CENTAUR R/B", "OBJECT_ID": "2025-261B", "EPOCH": "2025-12-02T05:50:10.707936", "MEAN_MOTION": 2.28259428, "ECCENTRICITY": 0.23297418, "INCLINATION": 6.1597, "RA_OF_ASC_NODE": 292.6661, "ARG_OF_PERICENTER": 184.3734, "MEAN_ANOMALY": 159.3781, "EPHEMERIS_TYPE": 0, "CLASSIFICATION_TYPE": "U", "NORAD_CAT_ID": 66455, "ELEMENT_SET_NO": 999, "REV_AT_EPOCH": 40, "BSTAR": 0, "MEAN_MOTION_DOT": -4.8e-07, "MEAN_MOTION_DDOT": 0}, "tle": {"line1": "1 66455U 25261B   25336.24317949 -.00000048  00000+0  00000+0 0  9991", "line2": "2 66455   6.1597 292.6661 2329741 184.3734 159.3781  2.28259428   406"}}, "geometry": {"type": "Point", "coordinates": [-172.89610827311387, -5.948388981357217]}}]}